[Satellite]
VERSION=1.1
NAME=Sparrow
NICKNAME=Sparrow
TLE1=1 43881U 18111F   25178.57591480  .00015416  00000-0  50498-3 0  9994
TLE2=2 43881  97.6099  96.3210 0007552 157.4466 202.7109 15.31726553356541
STATUS=0
